{"type": "FeatureCollection", "features": [ {"type": "Feature", "properties": {"norad_id": 67000, "name": "2025-292H", "group": "last-30-days", "lat": -81.30985995751966, "lon": 129.84784734322184, "alt_km": 550.0843938036351, "timestamp": "2025-12-21T16:47:53.452234+00:00", "meta": {"OBJECT_NAME": "2025-292H", "OBJECT_ID": "2025-292H", "EPOCH": "2025-12-21T10:47:46.582080", "MEAN_MOTION": 15.04990142, "ECCENTRICITY": 0.0014348, "INCLINATION": 97.6572, "RA_OF_ASC_NODE": 67.9312, "ARG_OF_PERICENTER": 247.2373, "MEAN_ANOMALY": 112.7338, "EPHEMERIS_TYPE": 0, "CLASSIFICATION_TYPE": "U", "NORAD_CAT_ID": 67000, "ELEMENT_SET_NO": 999, "REV_AT_EPOCH": 157, "BSTAR": 0.00033327, "MEAN_MOTION_DOT": 4.676e-05, "MEAN_MOTION_DDOT": 0}, "tle": {"line1": "1 67000U 25292H   25355.44984470  .00004676  00000+0  33327-3 0  9996", "line2": "2 67000  97.6572  67.9312 0014348 247.2373 112.7338 15.04990142  1570"}}, "geometry": {"type": "Point", "coordinates": [129.84784734322184, -81.30985995751966]}}, {"type": "Feature", "properties": {"norad_id": 67001, "name": "2025-292J", "group": "last-30-days", "lat": -68.26273263030589, "lon": -131.5498351498739, "alt_km": 550.8775199850006, "timestamp": "2025-12-21T16:47:53.452244+00:00", "meta": {"OBJECT_NAME": "2025-292J", "OBJECT_ID": "2025-292J", "EPOCH": "2025-12-21T10:54:09.831744", "MEAN_MOTION": 15.04387763, "ECCENTRICITY": 0.0014543, "INCLINATION": 97.6553, "RA_OF_ASC_NODE": 67.9226, "ARG_OF_PERICENTER": 236.2773, "MEAN_ANOMALY": 123.7068, "EPHEMERIS_TYPE": 0, "CLASSIFICATION_TYPE": "U", "NORAD_CAT_ID": 67001, "ELEMENT_SET_NO": 999, "REV_AT_EPOCH": 170, "BSTAR": 0.00028943, "MEAN_MOTION_DOT": 3.987e-05, "MEAN_MOTION_DDOT": 0}, "tle": {"line1": "1 67001U 25292J   25355.45428046  .00003987  00000+0  28943-3 0  9992", "line2": "2 67001  97.6553  67.9226 0014543 236.2773 123.7068 15.04387763  1709"}}, "geometry": {"type": "Point", "coordinates": [-131.5498351498739, -68.26273263030589]}}, {"type": "Feature", "properties": {"norad_id": 67002, "name": "ZK-1A R/B", "group": "last-30-days", "lat": -27.72850936283805, "lon": -114.876931210275, "alt_km": 480.99062900474837, "timestamp": "2025-12-21T16:47:53.452254+00:00", "meta": {"OBJECT_NAME": "ZK-1A R/B", "OBJECT_ID": "2025-292K", "EPOCH": "2025-12-21T11:16:07.595040", "MEAN_MOTION": 15.57277513, "ECCENTRICITY": 0.0210257, "INCLINATION": 97.7208, "RA_OF_ASC_NODE": 68.963, "ARG_OF_PERICENTER": 333.8006, "MEAN_ANOMALY": 25.2727, "EPHEMERIS_TYPE": 0, "CLASSIFICATION_TYPE": "U", "NORAD_CAT_ID": 67002, "ELEMENT_SET_NO": 999, "REV_AT_EPOCH": 175, "BSTAR": 0.00068958, "MEAN_MOTION_DOT": 0.0014528, "MEAN_MOTION_DDOT": 7.7959e-06}, "tle": {"line1": "1 67002U 25292K   25355.46953235  .00145280  77959-5  68958-3 0  9993", "line2": "2 67002  97.7208  68.9630 0210257 333.8006  25.2727 15.57277513  1753"}}, "geometry": {"type": "Point", "coordinates": [-114.876931210275, -27.72850936283805]}}, {"type": "Feature", "properties": {"norad_id": 67003, "name": "STARLINK-35660", "group": "last-30-days", "lat": -40.252950789136236, "lon": 135.75687979590347, "alt_km": 308.5622960689507, "timestamp": "2025-12-21T16:47:53.452264+00:00", "meta": {"OBJECT_NAME": "STARLINK-35660", "OBJECT_ID": "2025-293A", "EPOCH": "2025-12-21T12:00:02.000160", "MEAN_MOTION": 15.89350166, "ECCENTRICITY": 0.0003844, "INCLINATION": 69.9934, "RA_OF_ASC_NODE": 298.3666, "ARG_OF_PERICENTER": 277.5028, "MEAN_ANOMALY": 242.4741, "EPHEMERIS_TYPE": 0, "CLASSIFICATION_TYPE": "U", "NORAD_CAT_ID": 67003, "ELEMENT_SET_NO": 999, "REV_AT_EPOCH": 158, "BSTAR": 1.7438e-05, "MEAN_MOTION_DOT": 3.836e-05, "MEAN_MOTION_DDOT": 3.9142e-06}, "tle": {"line1": "1 67003U 25293A   25355.50002315  .00003836  39142-5  17438-4 0  9994", "line2": "2 67003  69.9934 298.3666 0003844 277.5028 242.4741 15.89350166  1580"}}, "geometry": {"type": "Point", "coordinates": [135.75687979590347, -40.252950789136236]}}, {"type": "Feature", "properties": {"norad_id": 67004, "name": "STARLINK-35913", "group": "last-30-days", "lat": -42.29503198466933, "lon": 137.14499324863914, "alt_km": 307.8935168140033, "timestamp": "2025-12-21T16:47:53.452278+00:00", "meta": {"OBJECT_NAME": "STARLINK-35913", "OBJECT_ID": "2025-293B", "EPOCH": "2025-12-21T12:00:02.000160", "MEAN_MOTION": 15.89395404, "ECCENTRICITY": 0.0004293, "INCLINATION": 69.9934, "RA_OF_ASC_NODE": 298.3638, "ARG_OF_PERICENTER": 265.4638, "MEAN_ANOMALY": 256.783, "EPHEMERIS_TYPE": 0, "CLASSIFICATION_TYPE": "U", "NORAD_CAT_ID": 67004, "ELEMENT_SET_NO": 999, "REV_AT_EPOCH": 158, "BSTAR": -0.00020627, "MEAN_MOTION_DOT": -0.00061366, "MEAN_MOTION_DDOT": 5.1222e-06}, "tle": {"line1": "1 67004U 25293B   25355.50002315 -.00061366  51222-5 -20627-3 0  9995", "line2": "2 67004  69.9934 298.3638 0004293 265.4638 256.7830 15.89395404  1583"}}, "geometry": {"type": "Point", "coordinates": [137.14499324863914, -42.29503198466933]}}, {"type": "Feature", "properties": {"norad_id": 67005, "name": "STARLINK-36148", "group": "last-30-days", "lat": -44.413428523755286, "lon": 138.69791056156166, "alt_km": 307.9010747834827, "timestamp": "2025-12-21T16:47:53.452290+00:00", "meta": {"OBJECT_NAME": "STARLINK-36148", "OBJECT_ID": "2025-293C", "EPOCH": "2025-12-21T12:00:02.000160", "MEAN_MOTION": 15.89431954, "ECCENTRICITY": 0.0004214, "INCLINATION": 69.9937, "RA_OF_ASC_NODE": 298.3614, "ARG_OF_PERICENTER": 266.5992, "MEAN_ANOMALY": 258.0286, "EPHEMERIS_TYPE": 0, "CLASSIFICATION_TYPE": "U", "NORAD_CAT_ID": 67005, "ELEMENT_SET_NO": 999, "REV_AT_EPOCH": 158, "BSTAR": -0.00029456, "MEAN_MOTION_DOT": -0.00087257, "MEAN_MOTION_DDOT": 6.3849e-06}, "tle": {"line1": "1 67005U 25293C   25355.50002315 -.00087257  63849-5 -29456-3 0  9990", "line2": "2 67005  69.9937 298.3614 0004214 266.5992 258.0286 15.89431954  1580"}}, "geometry": {"type": "Point", "coordinates": [138.69791056156166, -44.413428523755286]}}, {"type": "Feature", "properties": {"norad_id": 67006, "name": "STARLINK-36156", "group": "last-30-days", "lat": -49.28986800513358, "lon": 142.82930620691445, "alt_km": 307.6872614391714, "timestamp": "2025-12-21T16:47:53.452301+00:00", "meta": {"OBJECT_NAME": "STARLINK-36156", "OBJECT_ID": "2025-293D", "EPOCH": "2025-12-21T12:00:02.000160", "MEAN_MOTION": 15.89491044, "ECCENTRICITY": 0.0004272, "INCLINATION": 69.9936, "RA_OF_ASC_NODE": 298.3542, "ARG_OF_PERICENTER": 265.4491, "MEAN_ANOMALY": 264.78, "EPHEMERIS_TYPE": 0, "CLASSIFICATION_TYPE": "U", "NORAD_CAT_ID": 67006, "ELEMENT_SET_NO": 999, "REV_AT_EPOCH": 158, "BSTAR": -0.00035159, "MEAN_MOTION_DOT": -0.00104215, "MEAN_MOTION_DDOT": 7.4509e-06}, "tle": {"line1": "1 67006U 25293D   25355.50002315 -.00104215  74509-5 -35159-3 0  9997", "line2": "2 67006  69.9936 298.3542 0004272 265.4491 264.7800 15.89491044  1588"}}, "geometry": {"type": "Point", "coordinates": [142.82930620691445, -49.28986800513358]}}, {"type": "Feature", "properties": {"norad_id": 67007, "name": "STARLINK-36123", "group": "last-30-days", "lat": -47.092480380063954, "lon": 140.85816229284256, "alt_km": 308.0153042102811, "timestamp": "2025-12-21T16:47:53.452311+00:00", "meta": {"OBJECT_NAME": "STARLINK-36123", "OBJECT_ID": "2025-293E", "EPOCH": "2025-12-21T12:00:02.000160", "MEAN_MOTION": 15.89442048, "ECCENTRICITY": 0.0004213, "INCLINATION": 69.9934, "RA_OF_ASC_NODE": 298.3571, "ARG_OF_PERICENTER": 272.6186, "MEAN_ANOMALY": 255.0787, "EPHEMERIS_TYPE": 0, "CLASSIFICATION_TYPE": "U", "NORAD_CAT_ID": 67007, "ELEMENT_SET_NO": 999, "REV_AT_EPOCH": 158, "BSTAR": -0.00016688, "MEAN_MOTION_DOT": -0.00049994, "MEAN_MOTION_DDOT": 4.7081e-06}, "tle": {"line1": "1 67007U 25293E   25355.50002315 -.00049994  47081-5 -16688-3 0  9991", "line2": "2 67007  69.9934 298.3571 0004213 272.6186 255.0787 15.89442048  1582"}}, "geometry": {"type": "Point", "coordinates": [140.85816229284256, -47.092480380063954]}}, {"type": "Feature", "properties": {"norad_id": 67008, "name": "STARLINK-36163", "group": "last-30-days", "lat": -52.09918793145228, "lon": 145.67904735245776, "alt_km": 307.6301015672143, "timestamp": "2025-12-21T16:47:53.452320+00:00", "meta": {"OBJECT_NAME": "STARLINK-36163", "OBJECT_ID": "2025-293F", "EPOCH": "2025-12-21T12:00:02.000160", "MEAN_MOTION": 15.89530677, "ECCENTRICITY": 0.0004246, "INCLINATION": 69.9935, "RA_OF_ASC_NODE": 298.3504, "ARG_OF_PERICENTER": 265.9321, "MEAN_ANOMALY": 267.6169, "EPHEMERIS_TYPE": 0, "CLASSIFICATION_TYPE": "U", "NORAD_CAT_ID": 67008, "ELEMENT_SET_NO": 999, "REV_AT_EPOCH": 158, "BSTAR": -0.00046049, "MEAN_MOTION_DOT": -0.00136376, "MEAN_MOTION_DDOT": 9.9791e-06}, "tle": {"line1": "1 67008U 25293F   25355.50002315 -.00136376  99791-5 -46049-3 0  9992", "line2": "2 67008  69.9935 298.3504 0004246 265.9321 267.6169 15.89530677  1581"}}, "geometry": {"type": "Point", "coordinates": [145.67904735245776, -52.09918793145228]}}, {"type": "Feature", "properties": {"norad_id": 67009, "name": "STARLINK-36118", "group": "last-30-days", "lat": -54.36286772933531, "lon": 148.31618383132715, "alt_km": 307.78763255869126, "timestamp": "2025-12-21T16:47:53.452330+00:00", "meta": {"OBJECT_NAME": "STARLINK-36118", "OBJECT_ID": "2025-293G", "EPOCH": "2025-12-21T12:00:02.000160", "MEAN_MOTION": 15.89579696, "ECCENTRICITY": 0.0004164, "INCLINATION": 69.9934, "RA_OF_ASC_NODE": 298.3472, "ARG_OF_PERICENTER": 274.1748, "MEAN_ANOMALY": 262.1153, "EPHEMERIS_TYPE": 0, "CLASSIFICATION_TYPE": "U", "NORAD_CAT_ID": 67009, "ELEMENT_SET_NO": 999, "REV_AT_EPOCH": 152, "BSTAR": -0.00063201, "MEAN_MOTION_DOT": -0.00187149, "MEAN_MOTION_DDOT": 1.5305e-05}, "tle": {"line1": "1 67009U 25293G   25355.50002315 -.00187149  15305-4 -63201-3 0  9994", "line2": "2 67009  69.9934 298.3472 0004164 274.1748 262.1153 15.89579696  1520"}}, "geometry": {"type": "Point", "coordinates": [148.31618383132715, -54.36286772933531]}}]}